NORAD_CAT_ID,OBJECT_NAME,OBJECT_TYPE,EPOCH,MEAN_MOTION,ECCENTRICITY,INCLINATION,RA_OF_ASC_NODE,ARG_OF_PERICENTER,MEAN_ANOMALY,BSTAR,MEAN_MOTION_DOT,MEAN_MOTION_DDOT,TLE_LINE0,TLE_LINE1,TLE_LINE2,SEMIMAJOR_AXIS,PERIOD,APOGEE,PERIGEE,DECAYED
53276.0,STARLINK-4174,PAYLOAD,2024-08-11 11:17:50,15.08833669,0.0001204,53.2159,246.3818,75.2763,284.8363,-3.6679e-05,-8.71e-06,0.0,0 STARLINK-4174,1 53276U 22086AL  24224.47072102 -.00000871  00000-0 -36679-4 0  9991,2 53276  53.2159 246.3818 0001204  75.2763 284.8363 15.08833669114187,6917.9,95.438,540.598,538.932,0.0
53276.0,STARLINK-4174,PAYLOAD,2024-08-12 07:57:50,15.08845649,0.0001465,53.2165,242.5131,92.2082,267.9078,0.00020349,2.953e-05,0.0,0 STARLINK-4174,1 53276U 22086AL  24225.33183804  .00002953  00000-0  20349-3 0  9996,2 53276  53.2165 242.5131 0001465  92.2082 267.9078 15.08845649114313,6917.863,95.437,540.742,538.715,0.0
53276.0,STARLINK-4174,PAYLOAD,2024-08-13 07:48:37,15.08846839,0.00014,53.2157,238.0519,91.5566,268.5587,0.00012978,1.778e-05,0.0,0 STARLINK-4174,1 53276U 22086AL  24226.32543450  .00001778  00000-0  12978-3 0  9996,2 53276  53.2157 238.0519 0001400  91.5566 268.5587 15.08846839114631,6917.859,95.437,540.693,538.756,0.0
53276.0,STARLINK-4174,PAYLOAD,2024-08-13 17:20:56,15.08841358,0.0001264,53.2152,236.2675,79.5631,280.5503,0.00016343,2.314e-05,0.0,0 STARLINK-4174,1 53276U 22086AL  24226.72287758  .00002314  00000-0  16343-3 0  9993,2 53276  53.2152 236.2675 0001264  79.5631 280.5503 15.08841358114527,6917.876,95.437,540.616,538.867,0.0
53276.0,STARLINK-4174,PAYLOAD,2024-08-14 04:28:39,15.0882577,0.0001671,53.2168,234.1878,99.643,260.4751,-0.00020732,-3.585e-05,0.0,0 STARLINK-4174,1 53276U 22086AL  24227.18656761 -.00003585  00000-0 -20732-3 0  9998,2 53276  53.2168 234.1878 0001671  99.6430 260.4751 15.08825770114597,6917.924,95.438,540.945,538.633,0.0
53276.0,STARLINK-4174,PAYLOAD,2024-08-14 09:14:49,15.08820699,0.0001676,53.2173,233.2989,98.2219,261.8963,-0.00022312,-3.835e-05,0.0,0 STARLINK-4174,1 53276U 22086AL  24227.38529182 -.00003835  00000-0 -22312-3 0  9990,2 53276  53.2173 233.2989 0001676  98.2219 261.8963 15.08820699114798,6917.939,95.439,540.964,538.645,0.0
53276.0,STARLINK-4174,PAYLOAD,2024-08-14 17:11:45,15.08824862,0.0001749,53.2172,231.8122,102.3873,257.7315,-0.000199,-3.452e-05,0.0,0 STARLINK-4174,1 53276U 22086AL  24227.71649307 -.00003452  00000-0 -19900-3 0  9993,2 53276  53.2172 231.8122 0001749 102.3873 257.7315 15.08824862114841,6917.927,95.439,541.002,538.582,0.0
53276.0,STARLINK-4174,PAYLOAD,2024-08-15 04:19:26,15.08836638,0.0001813,53.2179,229.7295,116.8064,243.3113,2.8692e-05,1.69e-06,0.0,0 STARLINK-4174,1 53276U 22086AL  24228.18017202  .00000169  00000-0  28692-4 0  9997,2 53276  53.2179 229.7295 0001813 116.8064 243.3113 15.08836638114749,6917.891,95.438,541.01,538.501,0.0
53276.0,STARLINK-4174,PAYLOAD,2024-08-15 07:30:13,15.08835378,0.0001386,53.2162,229.1321,94.659,265.456,1.9603e-05,2.4e-07,0.0,0 STARLINK-4174,1 53276U 22086AL  24228.31265389  .00000024  00000-0  19603-4 0  9995,2 53276  53.2162 229.1321 0001386  94.6590 265.4560 15.08835378114939,6917.895,95.438,540.718,538.801,0.0
53276.0,STARLINK-4174,PAYLOAD,2024-08-15 17:02:31,15.08841603,0.0001407,53.2164,227.3477,90.5964,269.5189,3.4924e-05,2.68e-06,0.0,0 STARLINK-4174,1 53276U 22086AL  24228.71009079  .00000268  00000-0  34924-4 0  9994,2 53276  53.2164 227.3477 0001407  90.5964 269.5189 15.08841603114993,6917.875,95.437,540.714,538.767,0.0
53276.0,STARLINK-4174,PAYLOAD,2024-08-16 07:21:00,15.08845082,0.0001449,53.2148,224.6709,86.2061,273.9097,0.00038927,5.914e-05,0.0,0 STARLINK-4174,1 53276U 22086AL  24229.30625286  .00005914  00000-0  38927-3 0  9993,2 53276  53.2148 224.6709 0001449  86.2061 273.9097 15.08845082114913,6917.865,95.437,540.732,538.727,0.0
53276.0,STARLINK-4174,PAYLOAD,2024-08-17 04:01:01,15.08840659,0.000146,53.2145,220.8052,86.259,273.8569,0.00012442,1.693e-05,0.0,0 STARLINK-4174,1 53276U 22086AL  24230.16737558  .00001693  00000-0  12442-3 0  9999,2 53276  53.2145 220.8052 0001460  86.2590 273.8569 15.08840659115042,6917.878,95.438,540.753,538.733,0.0
53276.0,STARLINK-4174,PAYLOAD,2024-08-17 07:11:47,15.0884192,0.0001136,53.2146,220.2091,87.5933,272.5189,0.00021159,3.081e-05,0.0,0 STARLINK-4174,1 53276U 22086AL  24230.29985377  .00003081  00000-0  21159-3 0  9995,2 53276  53.2146 220.2091 0001136  87.5933 272.5189 15.08841920115232,6917.875,95.437,540.525,538.954,0.0
53276.0,STARLINK-4174,PAYLOAD,2024-08-18 05:27:10,15.08850274,0.0001551,53.2155,216.0462,72.3952,287.7209,8.582e-05,1.078e-05,0.0,0 STARLINK-4174,1 53276U 22086AL  24231.22720973  .00001078  00000-0  85820-4 0  9998,2 53276  53.2155 216.0462 0001551  72.3952 287.7209 15.08850274115201,6917.849,95.437,540.787,538.641,0.0
53276.0,STARLINK-4174,PAYLOAD,2024-08-19 05:18:00,15.0883248,0.0001528,53.2164,211.5856,78.9283,281.1881,0.00010667,1.41e-05,0.0,0 STARLINK-4174,1 53276U 22086AL  24232.22083410  .00001410  00000-0  10667-3 0  9993,2 53276  53.2164 211.5856 0001528  78.9283 281.1881 15.08832480115350,6917.903,95.438,540.825,538.711,0.0
53276.0,STARLINK-4174,PAYLOAD,2024-08-20 05:08:46,15.08863519,0.0001416,53.2147,207.1236,96.2155,263.8998,0.0011646,0.00018307,0.0,0 STARLINK-4174,1 53276U 22086AL  24233.21443121  .00018307  00000-0  11646-2 0  9992,2 53276  53.2147 207.1236 0001416  96.2155 263.8998 15.08863519115501,6917.809,95.436,540.653,538.694,0.0
53276.0,STARLINK-4174,PAYLOAD,2024-08-20 08:19:32,15.08875154,0.0001448,53.2153,206.531,95.8777,264.2381,0.0012148,0.00019117,0.0,0 STARLINK-4174,1 53276U 22086AL  24233.34690763  .00019117  00000-0  12148-2 0  9990,2 53276  53.2153 206.5310 0001448  95.8777 264.2381 15.08875154115693,6917.773,95.435,540.64,538.636,0.0
53276.0,STARLINK-4174,PAYLOAD,2024-08-21 04:59:32,15.0886814,0.0001437,53.2157,202.6645,93.7704,266.3453,0.00036409,5.516e-05,0.0,0 STARLINK-4174,1 53276U 22086AL  24234.20801532  .00005516  00000-0  36409-3 0  9999,2 53276  53.2157 202.6645 0001437  93.7704 266.3453 15.08868140115656,6917.794,95.436,540.653,538.665,0.0
53276.0,STARLINK-4174,PAYLOAD,2024-08-21 22:28:46,15.0884853,0.0001568,53.2163,199.3924,110.4889,249.6272,-7.3452e-05,-1.457e-05,0.0,0 STARLINK-4174,1 53276U 22086AL  24234.93665394 -.00001457  00000-0 -73452-4 0  9995,2 53276  53.2163 199.3924 0001568 110.4889 249.6272 15.08848530115767,6917.854,95.437,540.804,538.635,0.0
